H1 CPF  1  SGF 2022  1 19  2  5191 larets    
H2  0304206 5557    27944 2022  1 18  0  0  0 2022  1 23 23 57  0   180 1 1  0 0 0
H9
10 0 59597  25560.00000  0  -1827565.057   4115760.660   5432573.318
10 0 59597  25740.00000  0  -1863220.170   5111347.298   4499099.516
10 0 59597  25920.00000  0  -1807416.467   5920755.210   3400782.789
10 0 59597  26100.00000  0  -1667506.243   6512304.592   2177899.154
10 0 59597  26280.00000  0  -1454634.802   6862540.234    875276.399
10 0 59597  26460.00000  0  -1183101.503   6957190.063   -459375.260
10 0 59597  26640.00000  0   -869580.322   6791754.219  -1777247.724
10 0 59597  26820.00000  0   -532239.107   6371685.528  -3030264.000
10 0 59597  27000.00000  0   -189809.855   5712152.328  -4172851.064
10 0 59597  27180.00000  0    139342.305   4837423.636  -5163586.083
10 0 59597  27360.00000  0    438108.644   3779911.203  -5966662.340
10 0 59597  27540.00000  0    691443.907   2578917.521  -6553126.114
10 0 59597  27720.00000  0    887054.710   1279149.891  -6901850.687
10 0 59597  27900.00000  0   1015945.154    -70933.115  -7000234.533
10 0 59597  28080.00000  0   1072802.357  -1420892.537  -6844620.385
10 0 59597  28260.00000  0   1056209.486  -2720143.899  -6440426.461
10 0 59597  28440.00000  0    968682.906  -3919804.946  -5801998.107
10 0 59597  28620.00000  0    816528.382  -4974520.163  -4952171.828
10 0 59597  28800.00000  0    609519.739  -5844195.079  -3921540.253
10 0 59597  28980.00000  0    360407.473  -6495578.759  -2747428.644
10 0 59597  29160.00000  0     84273.446  -6903622.348  -1472594.751
10 0 59597  29340.00000  0   -202241.102  -7052542.076   -143684.920
10 0 59597  29520.00000  0   -481799.754  -6936515.253   1190500.491
10 0 59597  29700.00000  0   -737282.406  -6559964.275   2480854.763
10 0 59597  29880.00000  0   -952694.922  -5937403.931   3679846.073
10 0 59597  30060.00000  0  -1114023.046  -5092848.575   4743336.711
10 0 59597  30240.00000  0  -1209987.473  -4058822.154   5632247.506
10 0 59597  30420.00000  0  -1232660.708  -2875031.313   6314008.257
10 0 59597  30600.00000  0  -1177914.820  -1586763.097   6763735.402
10 0 59597  30780.00000  0  -1045681.488   -243098.056   6965101.911
10 0 59597  30960.00000  0   -840021.416   1104992.758   6910893.542
10 0 59597  31140.00000  0   -568996.000   2406598.883   6603239.665
10 0 59597  31320.00000  0   -244343.881   3612802.475   6053517.847
10 0 59597  31500.00000  0    119021.148   4678526.956   5281937.294
10 0 59597  31680.00000  0    503672.640   5564242.089   4316812.036
10 0 59597  31860.00000  0    890470.184   6237463.412   3193537.502
10 0 59597  32040.00000  0   1259459.951   6673986.735   1953305.111
10 0 59597  32220.00000  0   1590841.317   6858804.972    641574.284
10 0 59597  32400.00000  0   1865943.717   6786638.427   -693628.210
10 0 59597  32580.00000  0   2068166.158   6462064.131  -2003503.378
10 0 59597  32760.00000  0   2183830.377   5899244.659  -3240293.095
10 0 59597  32940.00000  0   2202907.245   5121273.339  -4359037.840
10 0 59597  33120.00000  0   2119580.102   4159169.143  -5319202.838
10 0 59597  33300.00000  0   1932619.226   3050584.447  -6086105.315
10 0 59597  33480.00000  0   1645556.781   1838297.099  -6632104.848
10 0 59597  33660.00000  0   1266658.279    568553.129  -6937528.729
10 0 59597  33840.00000  0    808696.240   -710673.841  -6991322.364
10 0 59597  34020.00000  0    288529.007  -1951454.423  -6791417.434
10 0 59597  34200.00000  0   -273499.375  -3107650.534  -6344814.915
10 0 59597  34380.00000  0   -854325.389  -4136598.915  -5667388.742
10 0 59597  34560.00000  0  -1429078.881  -5000684.689  -4783394.708
10 0 59597  34740.00000  0  -1972115.531  -5668752.531  -3724687.860
10 0 59597  34920.00000  0  -2458135.284  -6117299.141  -2529647.998
10 0 59597  35100.00000  0  -2863337.582  -6331386.737  -1241834.688
10 0 59597  35280.00000  0  -3166559.488  -6305227.419     91593.486
10 0 59597  35460.00000  0  -3350334.377  -6042390.319   1421641.522
10 0 59597  35640.00000  0  -3401809.247  -5555607.866   2699341.542
10 0 59597  35820.00000  0  -3313467.880  -4866185.741   3877628.148
10 0 59597  36000.00000  0  -3083618.442  -4003049.837   4913133.627
10 0 59597  36180.00000  0  -2716622.631  -3001483.106   5767822.145
10 0 59597  36360.00000  0  -2222855.629  -1901622.882   6410393.630
10 0 59597  36540.00000  0  -1618402.078   -746800.932   6817411.914
10 0 59597  36720.00000  0   -924504.400    418204.804   6974125.313
10 0 59597  36900.00000  0   -166794.040   1548926.947   6874958.231
10 0 59597  37080.00000  0    625669.032   2602913.907   6523684.920
10 0 59597  37260.00000  0   1421519.931   3541329.262   5933275.897
10 0 59597  37440.00000  0   2188332.524   4330390.657   5125426.594
10 0 59597  37620.00000  0   2893942.462   4942605.632   4129778.073
10 0 59597  37800.00000  0   3507799.154   5357753.530   2982844.500
10 0 59597  37980.00000  0   4002291.390   5563580.098   1726681.356
10 0 59597  38160.00000  0   4353983.698   5556164.275    407323.051
10 0 59597  38340.00000  0   4544693.758   5339936.551   -926937.095
10 0 59597  38520.00000  0   4562361.776   4927345.652  -2227353.434
10 0 59597  38700.00000  0   4401668.100   4338198.872  -3446537.350
10 0 59597  38880.00000  0   4064367.967   3598714.352  -4540196.341
10 0 59597  39060.00000  0   3559332.259   2740337.352  -5468726.151
10 0 59597  39240.00000  0   2902303.003   1798386.650  -6198600.985
10 0 59597  39420.00000  0   2115378.110    810596.395  -6703519.928
10 0 59597  39600.00000  0   1226254.895   -184381.295  -6965282.723
10 0 59597  39780.00000  0    267264.960  -1148457.189  -6974392.074
10 0 59597  39960.00000  0   -725776.444  -2045526.813  -6730372.490
10 0 59597  40140.00000  0  -1714868.709  -2842788.857  -6241806.031
10 0 59597  40320.00000  0  -2661242.472  -3511931.574  -5526081.970
10 0 59597  40500.00000  0  -3526853.647  -4030149.736  -4608856.818
10 0 59597  40680.00000  0  -4275914.757  -4380960.530  -3523220.447
10 0 59597  40860.00000  0  -4876398.964  -4554777.065  -2308571.215
10 0 59597  41040.00000  0  -5301449.714  -4549208.123  -1009224.733
10 0 59597  41220.00000  0  -5530622.175  -4369059.132    327203.697
10 0 59597  41400.00000  0  -5550885.456  -4026026.348   1651582.710
10 0 59597  41580.00000  0  -5357320.561  -3538088.799   2915139.655
10 0 59597  41760.00000  0  -4953468.227  -2928625.291   4071329.667
10 0 59597  41940.00000  0  -4351309.952  -2225308.357   5077609.980
10 0 59597  42120.00000  0  -3570883.975  -1458835.444   5897036.333
10 0 59597  42300.00000  0  -2639568.852   -661571.162   6499619.579
10 0 59597  42480.00000  0  -1591066.111    133839.419   6863404.534
10 0 59597  42660.00000  0   -464129.123    895819.716   6975228.959
10 0 59597  42840.00000  0    698898.146   1595116.007   6831161.105
10 0 59597  43020.00000  0   1853686.662   2205922.230   6436614.337
10 0 59597  43200.00000  0   2955619.399   2706833.303   5806136.284
10 0 59597  43380.00000  0   3961523.992   3081597.870   4962884.612
10 0 59597  43560.00000  0   4831381.337   3319648.884   3937794.117
10 0 59597  43740.00000  0   5529943.916   3416392.230   2768459.306
10 0 59597  43920.00000  0   6028199.358   3373238.396   1497753.380
10 0 59597  44100.00000  0   6304597.100   3197375.294    172236.877
10 0 59597  44280.00000  0   6345982.744   2901293.142  -1159584.413
10 0 59597  44460.00000  0   6148186.006   2502081.951  -2449072.663
10 0 59597  44640.00000  0   5716239.956   2020548.179  -3649259.799
10 0 59597  44820.00000  0   5064226.803   1480194.041  -4716566.677
10 0 59597  45000.00000  0   4214760.259    906111.065  -5612365.801
10 0 59597  45180.00000  0   3198142.637    323850.560  -6304327.114
10 0 59597  45360.00000  0   2051246.130   -241677.676  -6767517.832
10 0 59597  45540.00000  0    816166.527   -767235.594  -6985232.310
10 0 59597  45720.00000  0   -461300.587  -1232181.172  -6949545.805
10 0 59597  45900.00000  0  -1733317.557  -1619255.667  -6661583.294
10 0 59597  46080.00000  0  -2951748.889  -1915213.951  -6131505.324
10 0 59597  46260.00000  0  -4069945.154  -2111279.589  -5378204.607
10 0 59597  46440.00000  0  -5044520.941  -2203412.937  -4428716.426
10 0 59597  46620.00000  0  -5837069.708  -2192378.675  -3317332.248
10 0 59597  46800.00000  0  -6415741.292  -2083604.709  -2084426.860
10 0 59597  46980.00000  0  -6756605.611  -1886831.406   -775022.670
10 0 59597  47160.00000  0  -6844725.743  -1615562.190    562863.189
10 0 59597  47340.00000  0  -6674873.040  -1286337.282   1880025.487
10 0 59597  47520.00000  0  -6251832.652   -917867.293   3127949.657
10 0 59597  47700.00000  0  -5590277.848   -530073.691   4260670.887
10 0 59597  47880.00000  0  -4714217.125   -143087.393   5236524.770
10 0 59597  48060.00000  0  -3656051.559    223737.612   6019703.533
10 0 59597  48240.00000  0  -2455302.222    552746.615   6581566.581
10 0 59597  48420.00000  0  -1157064.479    828796.558   6901661.951
10 0 59597  48600.00000  0    189736.675   1039925.755   6968431.796
10 0 59597  48780.00000  0   1534216.724   1177856.641   6779591.285
10 0 59597  48960.00000  0   2825464.196   1238314.971   6342185.244
10 0 59597  49140.00000  0   4014475.855   1221155.292   5672323.984
10 0 59597  49320.00000  0   5056031.218   1130289.513   4794601.738
10 0 59597  49500.00000  0   5910438.362    973423.585   3741215.034
10 0 59597  49680.00000  0   6545090.776    761614.017   2550794.195
10 0 59597  49860.00000  0   6935753.557    508662.101   1266980.450
10 0 59597  50040.00000  0   7067523.804    230374.879    -63194.544
10 0 59597  50220.00000  0   6935413.235    -56269.772  -1391067.457
10 0 59597  50400.00000  0   6544520.673   -334011.340  -2668162.950
10 0 59597  50580.00000  0   5909789.244   -586201.221  -3847988.599
10 0 59597  50760.00000  0   5055370.710   -797657.558  -4887729.491
10 0 59597  50940.00000  0   4013636.657   -955434.855  -5749773.950
99
